TIANMU-1 07             
1 57399U 23101A   26065.57454230  .00008352  00000+0  29795-3 0  9991
2 57399  97.2728 118.5929 0004609 142.4105 217.7458 15.29118809145964
STARLINK-35506          
1 66324U 25253F   26068.72406323  .00031398  00000+0  11451-2 0  9994
2 66324  43.0030 211.9772 0002642 271.1001  88.9548 15.27595327 20255
